{
  "type": "FeatureCollection",
  "features": [
    {
      "type": "Feature",
      "properties": {
        "norad_id": 59600,
        "name": "GSAT0227 (GALILEO 30)",
        "group": "galileo",
        "lat": 38.67094614238979,
        "lon": -107.67829324682364,
        "alt_km": 23207.92458040148,
        "timestamp": "2025-12-08T13:49:32.055734+00:00",
        "meta_object_name": "GSAT0227 (GALILEO 30)",
        "meta_object_id": "2024-079C",
        "meta_epoch": "2025-12-06T14:29:58.537536",
        "meta_mean_motion": 1.70474646,
        "meta_eccentricity": 0.00033412,
        "meta_inclination": 54.9931,
        "meta_ra_of_asc_node": 106.4659,
        "meta_arg_of_pericenter": 113.7646,
        "meta_mean_anomaly": 246.2238,
        "meta_ephemeris_type": 0,
        "meta_classification_type": "U",
        "meta_norad_cat_id": 59600,
        "meta_element_set_no": 999,
        "meta_rev_at_epoch": 1008,
        "meta_bstar": 0,
        "meta_mean_motion_dot": 6e-08,
        "meta_mean_motion_ddot": 0,
        "tle_line1": "1 59600U 24079C   25340.60414974  .00000006  00000+0  00000+0 0  9995",
        "tle_line2": "2 59600  54.9931 106.4659 0003341 113.7646 246.2238  1.70474646 10088"
      },
      "geometry": {
        "type": "Point",
        "coordinates": [
          -107.67829324682364,
          38.67094614238979
        ]
      }
    },
    {
      "type": "Feature",
      "properties": {
        "norad_id": 61182,
        "name": "GSAT0232 (GALILEO 32)",
        "group": "galileo",
        "lat": -28.349171822038137,
        "lon": -155.42710841148093,
        "alt_km": 23228.215362420826,
        "timestamp": "2025-12-08T13:49:32.055745+00:00",
        "meta_object_name": "GSAT0232 (GALILEO 32)",
        "meta_object_id": "2024-167A",
        "meta_epoch": "2025-12-08T04:48:12.604896",
        "meta_mean_motion": 1.70473279,
        "meta_eccentricity": 0.00020528,
        "meta_inclination": 55.2426,
        "meta_ra_of_asc_node": 226.5554,
        "meta_arg_of_pericenter": 212.5072,
        "meta_mean_anomaly": 241.5423,
        "meta_ephemeris_type": 0,
        "meta_classification_type": "U",
        "meta_norad_cat_id": 61182,
        "meta_element_set_no": 999,
        "meta_rev_at_epoch": 762,
        "meta_bstar": 0,
        "meta_mean_motion_dot": 1.9e-07,
        "meta_mean_motion_ddot": 0,
        "tle_line1": "1 61182U 24167A   25342.20014589  .00000019  00000+0  00000+0 0  9991",
        "tle_line2": "2 61182  55.2426 226.5554 0002052 212.5072 241.5423  1.70473279  7627"
      },
      "geometry": {
        "type": "Point",
        "coordinates": [
          -155.42710841148093,
          -28.349171822038137
        ]
      }
    },
    {
      "type": "Feature",
      "properties": {
        "norad_id": 61183,
        "name": "GSAT0226 (GALILEO 31)",
        "group": "galileo",
        "lat": 53.28709767156927,
        "lon": -64.95121706728432,
        "alt_km": 23214.52981526429,
        "timestamp": "2025-12-08T13:49:32.055756+00:00",
        "meta_object_name": "GSAT0226 (GALILEO 31)",
        "meta_object_id": "2024-167B",
        "meta_epoch": "2025-12-06T09:26:36.340224",
        "meta_mean_motion": 1.70473292,
        "meta_eccentricity": 7.913e-05,
        "meta_inclination": 55.2417,
        "meta_ra_of_asc_node": 226.6105,
        "meta_arg_of_pericenter": 126.2936,
        "meta_mean_anomaly": 51.6212,
        "meta_ephemeris_type": 0,
        "meta_classification_type": "U",
        "meta_norad_cat_id": 61183,
        "meta_element_set_no": 999,
        "meta_rev_at_epoch": 756,
        "meta_bstar": 0,
        "meta_mean_motion_dot": 3.3e-07,
        "meta_mean_motion_ddot": 0,
        "tle_line1": "1 61183U 24167B   25340.39347616  .00000033  00000+0  00000+0 0  9996",
        "tle_line2": "2 61183  55.2417 226.6105 0000791 126.2936  51.6212  1.70473292  7563"
      },
      "geometry": {
        "type": "Point",
        "coordinates": [
          -64.95121706728432,
          53.28709767156927
        ]
      }
    }
  ]
}